[
  {
    "OBJECT_NAME": "EWS-G2 (GOES 15)",
    "OBJECT_ID": "2010-008A",
    "EPOCH": "2025-06-14T14:56:46.399200",
    "MEAN_MOTION": 1.00269769,
    "ECCENTRICITY": 0.0002143,
    "INCLINATION": 0.3255,
    "RA_OF_ASC_NODE": 85.5184,
    "ARG_OF_PERICENTER": 104.7696,
    "MEAN_ANOMALY": 358.402,
    "EPHEMERIS_TYPE": 0,
    "CLASSIFICATION_TYPE": "U",
    "NORAD_CAT_ID": 36411,
    "ELEMENT_SET_NO": 999,
    "REV_AT_EPOCH": 5595,
    "BSTAR": 0,
    "MEAN_MOTION_DOT": 5.2e-07,
    "MEAN_MOTION_DDOT": 0
  },
  {
    "OBJECT_NAME": "GOES 16",
    "OBJECT_ID": "2016-071A",
    "EPOCH": "2025-06-14T13:21:27.527904",
    "MEAN_MOTION": 1.00273812,
    "ECCENTRICITY": 0.000101,
    "INCLINATION": 0.0491,
    "RA_OF_ASC_NODE": 247.7085,
    "ARG_OF_PERICENTER": 229.0125,
    "MEAN_ANOMALY": 242.008,
    "EPHEMERIS_TYPE": 0,
    "CLASSIFICATION_TYPE": "U",
    "NORAD_CAT_ID": 41866,
    "ELEMENT_SET_NO": 999,
    "REV_AT_EPOCH": 3141,
    "BSTAR": 0,
    "MEAN_MOTION_DOT": -7.7e-07,
    "MEAN_MOTION_DDOT": 0
  },
  {
    "OBJECT_NAME": "GOES 17",
    "OBJECT_ID": "2018-022A",
    "EPOCH": "2025-06-13T20:13:25.125888",
    "MEAN_MOTION": 1.00322278,
    "ECCENTRICITY": 0.0002223,
    "INCLINATION": 0.0279,
    "RA_OF_ASC_NODE": 213.9012,
    "ARG_OF_PERICENTER": 259.7735,
    "MEAN_ANOMALY": 347.8196,
    "EPHEMERIS_TYPE": 0,
    "CLASSIFICATION_TYPE": "U",
    "NORAD_CAT_ID": 43226,
    "ELEMENT_SET_NO": 999,
    "REV_AT_EPOCH": 2673,
    "BSTAR": 0,
    "MEAN_MOTION_DOT": -8.6e-07,
    "MEAN_MOTION_DDOT": 0
  },
  {
    "OBJECT_NAME": "GOES 18",
    "OBJECT_ID": "2022-021A",
    "EPOCH": "2025-06-14T01:12:42.304032",
    "MEAN_MOTION": 1.00271837,
    "ECCENTRICITY": 4.05e-05,
    "INCLINATION": 0.0493,
    "RA_OF_ASC_NODE": 133.0001,
    "ARG_OF_PERICENTER": 17.0851,
    "MEAN_ANOMALY": 353.6923,
    "EPHEMERIS_TYPE": 0,
    "CLASSIFICATION_TYPE": "U",
    "NORAD_CAT_ID": 51850,
    "ELEMENT_SET_NO": 999,
    "REV_AT_EPOCH": 290,
    "BSTAR": 0,
    "MEAN_MOTION_DOT": 1.11e-06,
    "MEAN_MOTION_DDOT": 0
  },
  {
    "OBJECT_NAME": "GOES 19",
    "OBJECT_ID": "2024-119A",
    "EPOCH": "2025-06-14T11:47:04.166880",
    "MEAN_MOTION": 1.00270425,
    "ECCENTRICITY": 3.07e-05,
    "INCLINATION": 0.0482,
    "RA_OF_ASC_NODE": 141.6792,
    "ARG_OF_PERICENTER": 11.2262,
    "MEAN_ANOMALY": 211.6978,
    "EPHEMERIS_TYPE": 0,
    "CLASSIFICATION_TYPE": "U",
    "NORAD_CAT_ID": 60133,
    "ELEMENT_SET_NO": 999,
    "REV_AT_EPOCH": 327,
    "BSTAR": 0,
    "MEAN_MOTION_DOT": -2.34e-06,
    "MEAN_MOTION_DDOT": 0
  }
]